[{"OBJECT_NAME":"STARLINK-3640","OBJECT_ID":"2022-025AJ","EPOCH":"2026-03-09T10:21:07.304256","MEAN_MOTION":15.0883174,"ECCENTRICITY":0.00016112,"INCLINATION":53.2186,"RA_OF_ASC_NODE":40.2794,"ARG_OF_PERICENTER":89.2667,"MEAN_ANOMALY":270.851,"EPHEMERIS_TYPE":0,"CLASSIFICATION_TYPE":"U","NORAD_CAT_ID":51988,"ELEMENT_SET_NO":999,"REV_AT_EPOCH":22102,"BSTAR":-2.0357944e-5,"MEAN_MOTION_DOT":-6.12e-6,"MEAN_MOTION_DDOT":0},{"OBJECT_NAME":"FENGYUN 1C DEB","OBJECT_ID":"1999-025CRT","EPOCH":"2026-03-08T05:25:55.615296","MEAN_MOTION":14.72591337,"ECCENTRICITY":0.01689255,"INCLINATION":99.0682,"RA_OF_ASC_NODE":62.2268,"ARG_OF_PERICENTER":58.082,"MEAN_ANOMALY":303.669,"EPHEMERIS_TYPE":0,"CLASSIFICATION_TYPE":"U","NORAD_CAT_ID":32125,"ELEMENT_SET_NO":999,"REV_AT_EPOCH":71780,"BSTAR":0.003714293,"MEAN_MOTION_DOT":0.00029682,"MEAN_MOTION_DDOT":0}]
